G28 X0 Y0 Z0
G91
G1 Z5.000 F500
G90
M17
M3 S2000
G4 P100
G1 X10.000 Y10.000 Z0.500 F1500
G2 X20.000 Y10.000 I5.000 J0.000 F2000
G3 X15.000 Y15.000 I-2.500 J2.500
G1 X25.000 Y20.000 Z1.000 F1800
G4 P50
G1 X30.000 Y25.000 Z1.500
G2 X35.000 Y30.000 I2.500 J-2.500
G3 X40.000 Y35.000 I-2.500 J2.500
G1 X45.000 Y40.000 Z2.000
G2 X50.000 Y45.000 I5.000 J0.000
G3 X55.000 Y50.000 I-5.000 J0.000
G1 X60.000 Y55.000 Z2.500
G4 P25
G1 X65.000 Y60.000
G2 X70.000 Y65.000 I2.500 J2.500
G3 X75.000 Y70.000 I-2.500 J-2.500
G1 X80.000 Y75.000 Z3.000
G2 X85.000 Y80.000 I5.000 J0.000
G3 X90.000 Y85.000 I-5.000 J0.000
G1 X95.000 Y90.000 Z3.500
G4 P75
G1 X100.000 Y95.000
G2 X105.000 Y100.000 I2.500 J2.500
G3 X110.000 Y105.000 I-2.500 J-2.500
G1 X115.000 Y110.000 Z4.000
G2 X120.000 Y115.000 I5.000 J0.000
G3 X125.000 Y120.000 I-5.000 J0.000
G1 X130.000 Y125.000
G4 P100
G1 X135.000 Y130.000 Z4.500
G2 X140.000 Y135.000 I2.500 J2.500
G3 X145.000 Y140.000 I-2.500 J-2.500
G1 X150.000 Y145.000 Z5.000
G2 X155.000 Y150.000 I5.000 J0.000
G3 X160.000 Y155.000 I-5.000 J0.000
G1 X165.000 Y160.000
G4 P125
G1 X170.000 Y165.000 Z5.500
G2 X175.000 Y170.000 I2.500 J2.500
G3 X180.000 Y175.000 I-2.500 J-2.500
G1 X185.000 Y180.000 Z6.000
G2 X190.000 Y185.000 I5.000 J0.000
G3 X195.000 Y190.000 I-5.000 J0.000
G1 X200.000 Y195.000
G4 P150
G1 X205.000 Y200.000 Z6.500
G2 X210.000 Y205.000 I2.500 J2.500
G3 X215.000 Y210.000 I-2.500 J-2.500
G1 X220.000 Y215.000 Z7.000
G2 X225.000 Y220.000 I5.000 J0.000
G3 X230.000 Y225.000 I-5.000 J0.000
G1 X235.000 Y230.000
G4 P200
G1 X240.000 Y235.000 Z7.500
G2 X245.000 Y240.000 I2.500 J2.500
G3 X250.000 Y245.000 I-2.500 J-2.500
G1 X255.000 Y250.000 Z8.000
G2 X260.000 Y255.000 I5.000 J0.000
G3 X265.000 Y260.000 I-5.000 J0.000
G1 X270.000 Y265.000
G4 P250
G1 X275.000 Y270.000 Z8.500
G2 X280.000 Y275.000 I2.500 J2.500
G3 X285.000 Y280.000 I-2.500 J-2.500
G1 X290.000 Y285.000 Z9.000
G2 X295.000 Y290.000 I5.000 J0.000
G3 X300.000 Y295.000 I-5.000 J0.000
G1 X305.000 Y300.000
G4 P300
G1 X310.000 Y305.000 Z9.500
G2 X315.000 Y310.000 I2.500 J2.500
G3 X320.000 Y315.000 I-2.500 J-2.500
G1 X325.000 Y320.000 Z10.000
G2 X330.000 Y325.000 I5.000 J0.000
G3 X335.000 Y330.000 I-5.000 J0.000
G1 X340.000 Y335.000
G4 P350
G1 X345.000 Y340.000 Z10.500
G2 X350.000 Y345.000 I2.500 J2.500
G3 X355.000 Y350.000 I-2.500 J-2.500
G1 X360.000 Y355.000 Z11.000
G2 X365.000 Y360.000 I5.000 J0.000
G3 X370.000 Y365.000 I-5.000 J0.000
G1 X375.000 Y370.000
G4 P400
G1 X380.000 Y375.000 Z11.500
G2 X385.000 Y380.000 I2.500 J2.500
G3 X390.000 Y385.000 I-2.500 J-2.500
G1 X395.000 Y390.000 Z12.000
G2 X400.000 Y395.000 I5.000 J0.000
G3 X405.000 Y400.000 I-5.000 J0.000
G1 X410.000 Y405.000
G4 P450
G1 X415.000 Y410.000 Z12.500
G2 X420.000 Y415.000 I2.500 J2.500
G3 X425.000 Y420.000 I-2.500 J-2.500
G1 X430.000 Y425.000 Z13.000
G2 X435.000 Y430.000 I5.000 J0.000
G3 X440.000 Y435.000 I-5.000 J0.000
G1 X445.000 Y440.000
G4 P500
M5
G91
G1 Z50.000 F300
G28 X0 Y0