G21
G90
M98 P1000
M98 P2000
M98 P3000
M98 P4000
M98 P5000
M98 P6000
M98 P7000
M98 P8000
M98 P9000
M98 P10000
M98 P11000
M98 P12000
M98 P13000
M98 P14000
M98 P15000
M98 P16000
M98 P17000
M98 P18000
M98 P19000
M98 P20000
M98 P21000
M98 P22000
M98 P23000
M98 P24000
M98 P25000
M98 P26000
M98 P27000
M98 P28000
M98 P29000
M98 P30000
M98 P31000
M98 P32000
M98 P33000
M98 P34000
M98 P35000
M98 P36000
M98 P37000
M98 P38000
M98 P39000
M98 P40000
M98 P41000
M98 P42000
M98 P43000
M98 P44000
M98 P45000
M98 P46000
M98 P47000
M98 P48000
M98 P49000
M98 P50000
M98 P51000
M98 P52000
M98 P53000
M98 P54000
M98 P55000
M98 P56000
M98 P57000
M98 P58000
M98 P59000
M98 P60000
M98 P61000
M98 P62000
M98 P63000
M98 P64000
M98 P65000
M98 P66000
M98 P67000
M98 P68000
M98 P69000
M98 P70000
M98 P71000
M98 P72000
M98 P73000
M98 P74000
M98 P75000
M98 P76000
M98 P77000
M98 P78000
M98 P79000
M98 P80000
M98 P81000
M98 P82000
M98 P83000
M98 P84000
M98 P85000
M98 P86000
M98 P87000
M98 P88000
M98 P89000
M98 P90000
M98 P91000
M98 P92000
M98 P93000
M98 P94000
M98 P95000
M98 P96000
M98 P97000
M98 P98000
M98 P99000
M98 P100000
M99
G0 X0 Y0 Z0
; Thread 1
G1 X10 Y0 Z-1 F300
M98 P1100
G1 X20 Y0 Z-2 F300
M98 P1200
G1 X30 Y0 Z-3 F300
M98 P1300
G1 X40 Y0 Z-4 F300
M98 P1400
G1 X50 Y0 Z-5 F300
M98 P1500
G1 X60 Y0 Z-6 F300
M98 P1600
G1 X70 Y0 Z-7 F300
M98 P1700
G1 X80 Y0 Z-8 F300
M98 P1800
G1 X90 Y0 Z-9 F300
M98 P1900
G1 X100 Y0 Z-10 F300
; Thread 2
G1 X0 Y10 Z-1 F300
M98 P2100
G1 X0 Y20 Z-2 F300
M98 P2200
G1 X0 Y30 Z-3 F300
M98 P2300
G1 X0 Y40 Z-4 F300
M98 P2400
G1 X0 Y50 Z-5 F300
M98 P2500
G1 X0 Y60 Z-6 F300
M98 P2600
G1 X0 Y70 Z-7 F300
M98 P2700
G1 X0 Y80 Z-8 F300
M98 P2800
G1 X0 Y90 Z-9 F300
M98 P2900
G1 X0 Y100 Z-10 F300
; Thread 3
G1 X10 Y10 Z-1 F300
M98 P3100
G1 X20 Y20 Z-2 F300
M98 P3200
G1 X30 Y30 Z-3 F300
M98 P3300
G1 X40 Y40 Z-4 F300
M98 P3400
G1 X50 Y50 Z-5 F300
M98 P3500
G1 X60 Y60 Z-6 F300
M98 P3600
G1 X70 Y70 Z-7 F300
M98 P3700
G1 X80 Y80 Z-8 F300
M98 P3800
G1 X90 Y90 Z-9 F300
M98 P3900
G1 X100 Y100 Z-10 F300
; Thread 4
G1 X100 Y0 Z-1 F300
M98 P4100
G1 X100 Y10 Z-2 F300
M98 P4200
G1 X100 Y20 Z-3 F300
M98 P4300
G1 X100 Y30 Z-4 F300
M98 P4400
G1 X100 Y40 Z-5 F300
M98 P4500
G1 X100 Y50 Z-6 F300
M98 P4600
G1 X100 Y60 Z-7 F300
M98 P4700
G1 X100 Y70 Z-8 F300
M98 P4800
G1 X100 Y80 Z-9 F300
M98 P4900
G1 X100 Y90 Z-10 F300
M98 P5000
G1 X100 Y100 Z-11 F300
; Multithread merge phase
G1 X50 Y50 Z-12 F300
M98 P5100
G1 X40 Y60 Z-12 F300
M98 P5200
G1 X60 Y40 Z-12 F300
M98 P5300
G1 X70 Y30 Z-12 F300
M98 P5400
G1 X30 Y70 Z-12 F300
M98 P5500
G1 X20 Y80 Z-12 F300
M98 P5600
G1 X80 Y20 Z-12 F300
M98 P5700
G1 X90 Y10 Z-12 F300
M98 P5800
G1 X10 Y90 Z-12 F300
M98 P5900
G1 X0 Y100 Z-12 F300
; Final sort completion
G1 X0 Y0 Z0 F300
M30